- id: gps-46826
  name: NAVSTAR 80 (USA 309)
  allegiance: friendly
  components:
    - kind: space_orbit
      data:
        line1: "1 46826U 20078A   26086.74927044 -.00000029  00000+0  00000+0 0  9992"
        line2: "2 46826  53.9959 214.0799 0069538 204.9049 334.1351  2.00565073 39874"
        fov_half_angle_deg: 5.0
    - kind: symbol
      data:
        sidc_template:
          version: "10"
          context: reality
          standard_identity: friend
          symbol_set: space
          status: present
          hqtfd: not_applicable
          amplifier: unspecified
          entity: code_110700
          modifier_one: code_02
          modifier_two: code_00
